{"d":[{"__type":"Nettpositive.BureauOne.BusinessObjects.Pin","state":"25","pincode":"79","StateCode":"NL","CibilStateCode":"13","HighmarkStateCode":"NL"},{"__type":"Nettpositive.BureauOne.BusinessObjects.Pin","state":"30","pincode":"73","StateCode":"SK","CibilStateCode":"11","HighmarkStateCode":"SK"},{"__type":"Nettpositive.BureauOne.BusinessObjects.Pin","state":"8","pincode":"39","StateCode":"DN","CibilStateCode":"26","HighmarkStateCode":"DN"},{"__type":"Nettpositive.BureauOne.BusinessObjects.Pin","state":"10","pincode":"11","StateCode":"DL","CibilStateCode":"07","HighmarkStateCode":"DL"},{"__type":"Nettpositive.BureauOne.BusinessObjects.Pin","state":"13","pincode":"12","StateCode":"HR","CibilStateCode":"06","HighmarkStateCode":"HR"},{"__type":"Nettpositive.BureauOne.BusinessObjects.Pin","state":"13","pincode":"13","StateCode":"HR","CibilStateCode":"06","HighmarkStateCode":"HR"},{"__type":"Nettpositive.BureauOne.BusinessObjects.Pin","state":"28","pincode":"14","StateCode":"PB","CibilStateCode":"03","HighmarkStateCode":"PB"},{"__type":"Nettpositive.BureauOne.BusinessObjects.Pin","state":"28","pincode":"15","StateCode":"PB","CibilStateCode":"03","HighmarkStateCode":"PB"},{"__type":"Nettpositive.BureauOne.BusinessObjects.Pin","state":"6","pincode":"16","StateCode":"CH","CibilStateCode":"04","HighmarkStateCode":"CH"},{"__type":"Nettpositive.BureauOne.BusinessObjects.Pin","state":"14","pincode":"17","StateCode":"HP","CibilStateCode":"02","HighmarkStateCode":"HP"},{"__type":"Nettpositive.BureauOne.BusinessObjects.Pin","state":"15","pincode":"18","StateCode":"JK","CibilStateCode":"01","HighmarkStateCode":"JK"},{"__type":"Nettpositive.BureauOne.BusinessObjects.Pin","state":"15","pincode":"19","StateCode":"JK","CibilStateCode":"01","HighmarkStateCode":"JK"},{"__type":"Nettpositive.BureauOne.BusinessObjects.Pin","state":"33","pincode":"20","StateCode":"UP","CibilStateCode":"09","HighmarkStateCode":"UP"},{"__type":"Nettpositive.BureauOne.BusinessObjects.Pin","state":"33","pincode":"21","StateCode":"UP","CibilStateCode":"09","HighmarkStateCode":"UP"},{"__type":"Nettpositive.BureauOne.BusinessObjects.Pin","state":"33","pincode":"22","StateCode":"UP","CibilStateCode":"09","HighmarkStateCode":"UP"},{"__type":"Nettpositive.BureauOne.BusinessObjects.Pin","state":"33","pincode":"23","StateCode":"UP","CibilStateCode":"09","HighmarkStateCode":"UP"},{"__type":"Nettpositive.BureauOne.BusinessObjects.Pin","state":"33","pincode":"24","StateCode":"UP","CibilStateCode":"09","HighmarkStateCode":"UP"},{"__type":"Nettpositive.BureauOne.BusinessObjects.Pin","state":"33","pincode":"25","StateCode":"UP","CibilStateCode":"09","HighmarkStateCode":"UP"},{"__type":"Nettpositive.BureauOne.BusinessObjects.Pin","state":"33","pincode":"26","StateCode":"UP","CibilStateCode":"09","HighmarkStateCode":"UP"},{"__type":"Nettpositive.BureauOne.BusinessObjects.Pin","state":"33","pincode":"27","StateCode":"UP","CibilStateCode":"09","HighmarkStateCode":"UP"},{"__type":"Nettpositive.BureauOne.BusinessObjects.Pin","state":"33","pincode":"28","StateCode":"UP","CibilStateCode":"09","HighmarkStateCode":"UP"},{"__type":"Nettpositive.BureauOne.BusinessObjects.Pin","state":"29","pincode":"30","StateCode":"RJ","CibilStateCode":"08","HighmarkStateCode":"RJ"},{"__type":"Nettpositive.BureauOne.BusinessObjects.Pin","state":"29","pincode":"31","StateCode":"RJ","CibilStateCode":"08","HighmarkStateCode":"RJ"},{"__type":"Nettpositive.BureauOne.BusinessObjects.Pin","state":"29","pincode":"32","StateCode":"RJ","CibilStateCode":"08","HighmarkStateCode":"RJ"},{"__type":"Nettpositive.BureauOne.BusinessObjects.Pin","state":"29","pincode":"33","StateCode":"RJ","CibilStateCode":"08","HighmarkStateCode":"RJ"},{"__type":"Nettpositive.BureauOne.BusinessObjects.Pin","state":"29","pincode":"34","StateCode":"RJ","CibilStateCode":"08","HighmarkStateCode":"RJ"},{"__type":"Nettpositive.BureauOne.BusinessObjects.Pin","state":"12","pincode":"36","StateCode":"GJ","CibilStateCode":"24","HighmarkStateCode":"GJ"},{"__type":"Nettpositive.BureauOne.BusinessObjects.Pin","state":"12","pincode":"37","StateCode":"GJ","CibilStateCode":"24","HighmarkStateCode":"GJ"},{"__type":"Nettpositive.BureauOne.BusinessObjects.Pin","state":"12","pincode":"38","StateCode":"GJ","CibilStateCode":"24","HighmarkStateCode":"GJ"},{"__type":"Nettpositive.BureauOne.BusinessObjects.Pin","state":"12","pincode":"39","StateCode":"GJ","CibilStateCode":"24","HighmarkStateCode":"GJ"},{"__type":"Nettpositive.BureauOne.BusinessObjects.Pin","state":"11","pincode":"403","StateCode":"GA","CibilStateCode":"30","HighmarkStateCode":"GA"},{"__type":"Nettpositive.BureauOne.BusinessObjects.Pin","state":"21","pincode":"40","StateCode":"MH","CibilStateCode":"27","HighmarkStateCode":"MH"},{"__type":"Nettpositive.BureauOne.BusinessObjects.Pin","state":"21","pincode":"41","StateCode":"MH","CibilStateCode":"27","HighmarkStateCode":"MH"},{"__type":"Nettpositive.BureauOne.BusinessObjects.Pin","state":"21","pincode":"42","StateCode":"MH","CibilStateCode":"27","HighmarkStateCode":"MH"},{"__type":"Nettpositive.BureauOne.BusinessObjects.Pin","state":"21","pincode":"43","StateCode":"MH","CibilStateCode":"27","HighmarkStateCode":"MH"},{"__type":"Nettpositive.BureauOne.BusinessObjects.Pin","state":"21","pincode":"44","StateCode":"MH","CibilStateCode":"27","HighmarkStateCode":"MH"},{"__type":"Nettpositive.BureauOne.BusinessObjects.Pin","state":"20","pincode":"45","StateCode":"MP","CibilStateCode":"23","HighmarkStateCode":"MP"},{"__type":"Nettpositive.BureauOne.BusinessObjects.Pin","state":"20","pincode":"46","StateCode":"MP","CibilStateCode":"23","HighmarkStateCode":"MP"},{"__type":"Nettpositive.BureauOne.BusinessObjects.Pin","state":"20","pincode":"47","StateCode":"MP","CibilStateCode":"23","HighmarkStateCode":"MP"},{"__type":"Nettpositive.BureauOne.BusinessObjects.Pin","state":"20","pincode":"48","StateCode":"MP","CibilStateCode":"23","HighmarkStateCode":"MP"},{"__type":"Nettpositive.BureauOne.BusinessObjects.Pin","state":"7","pincode":"49","StateCode":"CG","CibilStateCode":"22","HighmarkStateCode":"CG"},{"__type":"Nettpositive.BureauOne.BusinessObjects.Pin","state":"2","pincode":"50","StateCode":"AP","CibilStateCode":"28","HighmarkStateCode":"AP"},{"__type":"Nettpositive.BureauOne.BusinessObjects.Pin","state":"2","pincode":"51","StateCode":"AP","CibilStateCode":"28","HighmarkStateCode":"AP"},{"__type":"Nettpositive.BureauOne.BusinessObjects.Pin","state":"2","pincode":"52","StateCode":"AP","CibilStateCode":"28","HighmarkStateCode":"AP"},{"__type":"Nettpositive.BureauOne.BusinessObjects.Pin","state":"2","pincode":"53","StateCode":"AP","CibilStateCode":"28","HighmarkStateCode":"AP"},{"__type":"Nettpositive.BureauOne.BusinessObjects.Pin","state":"17","pincode":"56","StateCode":"KA","CibilStateCode":"29","HighmarkStateCode":"KA"},{"__type":"Nettpositive.BureauOne.BusinessObjects.Pin","state":"17","pincode":"57","StateCode":"KA","CibilStateCode":"29","HighmarkStateCode":"KA"},{"__type":"Nettpositive.BureauOne.BusinessObjects.Pin","state":"17","pincode":"58","StateCode":"KA","CibilStateCode":"29","HighmarkStateCode":"KA"},{"__type":"Nettpositive.BureauOne.BusinessObjects.Pin","state":"17","pincode":"59","StateCode":"KA","CibilStateCode":"29","HighmarkStateCode":"KA"},{"__type":"Nettpositive.BureauOne.BusinessObjects.Pin","state":"31","pincode":"60","StateCode":"TN","CibilStateCode":"33","HighmarkStateCode":"TN"},{"__type":"Nettpositive.BureauOne.BusinessObjects.Pin","state":"31","pincode":"61","StateCode":"TN","CibilStateCode":"33","HighmarkStateCode":"TN"},{"__type":"Nettpositive.BureauOne.BusinessObjects.Pin","state":"31","pincode":"62","StateCode":"TN","CibilStateCode":"33","HighmarkStateCode":"TN"},{"__type":"Nettpositive.BureauOne.BusinessObjects.Pin","state":"31","pincode":"63","StateCode":"TN","CibilStateCode":"33","HighmarkStateCode":"TN"},{"__type":"Nettpositive.BureauOne.BusinessObjects.Pin","state":"31","pincode":"64","StateCode":"TN","CibilStateCode":"33","HighmarkStateCode":"TN"},{"__type":"Nettpositive.BureauOne.BusinessObjects.Pin","state":"18","pincode":"67","StateCode":"KL","CibilStateCode":"32","HighmarkStateCode":"KL"},{"__type":"Nettpositive.BureauOne.BusinessObjects.Pin","state":"18","pincode":"68","StateCode":"KL","CibilStateCode":"32","HighmarkStateCode":"KL"},{"__type":"Nettpositive.BureauOne.BusinessObjects.Pin","state":"18","pincode":"69","StateCode":"KL","CibilStateCode":"32","HighmarkStateCode":"KL"},{"__type":"Nettpositive.BureauOne.BusinessObjects.Pin","state":"19","pincode":"682","StateCode":"LD","CibilStateCode":"31","HighmarkStateCode":"LD"},{"__type":"Nettpositive.BureauOne.BusinessObjects.Pin","state":"35","pincode":"70","StateCode":"WB","CibilStateCode":"19","HighmarkStateCode":"WB"},{"__type":"Nettpositive.BureauOne.BusinessObjects.Pin","state":"35","pincode":"71","StateCode":"WB","CibilStateCode":"19","HighmarkStateCode":"WB"},{"__type":"Nettpositive.BureauOne.BusinessObjects.Pin","state":"35","pincode":"72","StateCode":"WB","CibilStateCode":"19","HighmarkStateCode":"WB"},{"__type":"Nettpositive.BureauOne.BusinessObjects.Pin","state":"35","pincode":"73","StateCode":"WB","CibilStateCode":"19","HighmarkStateCode":"WB"},{"__type":"Nettpositive.BureauOne.BusinessObjects.Pin","state":"35","pincode":"74","StateCode":"WB","CibilStateCode":"19","HighmarkStateCode":"WB"},{"__type":"Nettpositive.BureauOne.BusinessObjects.Pin","state":"1","pincode":"744","StateCode":"AN","CibilStateCode":"35","HighmarkStateCode":"AN"},{"__type":"Nettpositive.BureauOne.BusinessObjects.Pin","state":"26","pincode":"75","StateCode":"OR","CibilStateCode":"21","HighmarkStateCode":"OR"},{"__type":"Nettpositive.BureauOne.BusinessObjects.Pin","state":"26","pincode":"76","StateCode":"OR","CibilStateCode":"21","HighmarkStateCode":"OR"},{"__type":"Nettpositive.BureauOne.BusinessObjects.Pin","state":"26","pincode":"77","StateCode":"OR","CibilStateCode":"21","HighmarkStateCode":"OR"},{"__type":"Nettpositive.BureauOne.BusinessObjects.Pin","state":"4","pincode":"78","StateCode":"AS","CibilStateCode":"18","HighmarkStateCode":"AS"},{"__type":"Nettpositive.BureauOne.BusinessObjects.Pin","state":"3","pincode":"79","StateCode":"AR","CibilStateCode":"12","HighmarkStateCode":"AR"},{"__type":"Nettpositive.BureauOne.BusinessObjects.Pin","state":"23","pincode":"793","StateCode":"ML","CibilStateCode":"17","HighmarkStateCode":"ML"},{"__type":"Nettpositive.BureauOne.BusinessObjects.Pin","state":"23","pincode":"794","StateCode":"ML","CibilStateCode":"17","HighmarkStateCode":"ML"},{"__type":"Nettpositive.BureauOne.BusinessObjects.Pin","state":"23","pincode":"783123","StateCode":"ML","CibilStateCode":"17","HighmarkStateCode":"ML"},{"__type":"Nettpositive.BureauOne.BusinessObjects.Pin","state":"22","pincode":"795","StateCode":"MN","CibilStateCode":"14","HighmarkStateCode":"MN"},{"__type":"Nettpositive.BureauOne.BusinessObjects.Pin","state":"24","pincode":"796","StateCode":"MZ","CibilStateCode":"15","HighmarkStateCode":"MZ"},{"__type":"Nettpositive.BureauOne.BusinessObjects.Pin","state":"32","pincode":"799","StateCode":"TR","CibilStateCode":"16","HighmarkStateCode":"TR"},{"__type":"Nettpositive.BureauOne.BusinessObjects.Pin","state":"5","pincode":"80","StateCode":"BR","CibilStateCode":"10","HighmarkStateCode":"BR"},{"__type":"Nettpositive.BureauOne.BusinessObjects.Pin","state":"5","pincode":"81","StateCode":"BR","CibilStateCode":"10","HighmarkStateCode":"BR"},{"__type":"Nettpositive.BureauOne.BusinessObjects.Pin","state":"5","pincode":"82","StateCode":"BR","CibilStateCode":"10","HighmarkStateCode":"BR"},{"__type":"Nettpositive.BureauOne.BusinessObjects.Pin","state":"5","pincode":"83","StateCode":"BR","CibilStateCode":"10","HighmarkStateCode":"BR"},{"__type":"Nettpositive.BureauOne.BusinessObjects.Pin","state":"5","pincode":"84","StateCode":"BR","CibilStateCode":"10","HighmarkStateCode":"BR"},{"__type":"Nettpositive.BureauOne.BusinessObjects.Pin","state":"5","pincode":"85","StateCode":"BR","CibilStateCode":"10","HighmarkStateCode":"BR"},{"__type":"Nettpositive.BureauOne.BusinessObjects.Pin","state":"16","pincode":"80","StateCode":"JH","CibilStateCode":"20","HighmarkStateCode":"JH"},{"__type":"Nettpositive.BureauOne.BusinessObjects.Pin","state":"16","pincode":"81","StateCode":"JH","CibilStateCode":"20","HighmarkStateCode":"JH"},{"__type":"Nettpositive.BureauOne.BusinessObjects.Pin","state":"16","pincode":"82","StateCode":"JH","CibilStateCode":"20","HighmarkStateCode":"JH"},{"__type":"Nettpositive.BureauOne.BusinessObjects.Pin","state":"16","pincode":"83","StateCode":"JH","CibilStateCode":"20","HighmarkStateCode":"JH"},{"__type":"Nettpositive.BureauOne.BusinessObjects.Pin","state":"16","pincode":"84","StateCode":"JH","CibilStateCode":"20","HighmarkStateCode":"JH"},{"__type":"Nettpositive.BureauOne.BusinessObjects.Pin","state":"16","pincode":"85","StateCode":"JH","CibilStateCode":"20","HighmarkStateCode":"JH"},{"__type":"Nettpositive.BureauOne.BusinessObjects.Pin","state":"34","pincode":"20","StateCode":"UL","CibilStateCode":"05","HighmarkStateCode":"UK"},{"__type":"Nettpositive.BureauOne.BusinessObjects.Pin","state":"34","pincode":"21","StateCode":"UL","CibilStateCode":"05","HighmarkStateCode":"UK"},{"__type":"Nettpositive.BureauOne.BusinessObjects.Pin","state":"34","pincode":"22","StateCode":"UL","CibilStateCode":"05","HighmarkStateCode":"UK"},{"__type":"Nettpositive.BureauOne.BusinessObjects.Pin","state":"34","pincode":"23","StateCode":"UL","CibilStateCode":"05","HighmarkStateCode":"UK"},{"__type":"Nettpositive.BureauOne.BusinessObjects.Pin","state":"34","pincode":"24","StateCode":"UL","CibilStateCode":"05","HighmarkStateCode":"UK"},{"__type":"Nettpositive.BureauOne.BusinessObjects.Pin","state":"34","pincode":"25","StateCode":"UL","CibilStateCode":"05","HighmarkStateCode":"UK"},{"__type":"Nettpositive.BureauOne.BusinessObjects.Pin","state":"34","pincode":"26","StateCode":"UL","CibilStateCode":"05","HighmarkStateCode":"UK"},{"__type":"Nettpositive.BureauOne.BusinessObjects.Pin","state":"34","pincode":"27","StateCode":"UL","CibilStateCode":"05","HighmarkStateCode":"UK"},{"__type":"Nettpositive.BureauOne.BusinessObjects.Pin","state":"34","pincode":"28","StateCode":"UL","CibilStateCode":"05","HighmarkStateCode":"UK"}]}